SL-3 R/B                
1 13403U 82079B   26086.90856328  .00006059  00000+0  23930-3 0  9999
2 13403  81.1484 171.5658 0025520 104.8412 255.5651 15.25038475380477
SL-14 R/B               
1 13553U 82092B   26086.83701374  .00000410  00000+0  43301-4 0  9992
2 13553  82.5660 124.4231 0018993 238.6575 294.1377 14.86682242331620
SL-3 R/B                
1 13819U 83010B   26086.81104307  .00014212  00000+0  27986-3 0  9994
2 13819  81.1058 340.0223 0016097 349.4554  10.6350 15.46955675360746
SL-3 R/B                
1 14208U 83075B   26086.89691134  .00011476  00000+0  29851-3 0  9997
2 14208  97.6142  92.1696 0022148 159.6287 200.5846 15.38835099332952
COSMOS 1536             
1 14699U 84013A   26086.77676960  .00005952  00000+0  24348-3 0  9999
2 14699  82.5416  89.8629 0013205 211.9393 148.1045 15.24061050275379
SL-14 R/B               
1 14820U 84027B   26086.87413618  .00000546  00000+0  59593-4 0  9995
2 14820  82.5416 227.9561 0016479 273.5489  86.3842 14.85994935250331
SL-8 R/B                
1 15483U 85006B   26086.83578697  .00000306  00000+0  11000-3 0  9998
2 15483  74.0450 227.7553 0017715 140.3973  11.9798 14.37795997156639
SL-12 R/B(2)            
1 15772U 85042D   26086.65398539  .00000052  00000+0  44980-4 0  9996
2 15772  71.1083  49.7722 0032861  98.3616  73.6899 14.21987316116943
SL-14 R/B               
1 15945U 85069B   26086.85338561  .00000504  00000+0  54043-4 0  9991
2 15945  82.5305   7.8580 0019976 129.1305 231.1692 14.86452384175530
SL-16 R/B               
1 16182U 85097B   26086.80284661 -.00000029  00000+0  96799-5 0  9990
2 16182  71.0008 102.4191 0009476 238.6472 293.8767 14.16603547 89794
SL-14 R/B               
1 16496U 86006B   26086.82578515  .00000923  00000+0  95416-4 0  9991
2 16496  82.5250 242.6639 0075727 211.6515 148.0138 14.86842610151902
COSMOS 1743             
1 16719U 86034A   26086.86788391  .00044051  00000+0  54255-3 0  9994
2 16719  82.5300  54.7300 0004092 174.1082 186.0223 15.60021234183087
