CCSDS_OMM_VERS = 2.0
CREATION_DATE  = 
ORIGINATOR     = 

OBJECT_NAME    = SL-3 R/B
OBJECT_ID      = 1982-079B
CENTER_NAME    = EARTH
REF_FRAME      = TEME
TIME_SYSTEM    = UTC
MEAN_ELEMENT_THEORY = SGP/SGP4

EPOCH          = 2026-03-27T21:48:19.867392
MEAN_MOTION    = 15.25038475
ECCENTRICITY   = .00255203
INCLINATION    = 81.1484
RA_OF_ASC_NODE = 171.5658
ARG_OF_PERICENTER = 104.8412
MEAN_ANOMALY   = 255.5651

EPHEMERIS_TYPE = 0
CLASSIFICATION_TYPE = U
NORAD_CAT_ID   = 13403
ELEMENT_SET_NO = 999
REV_AT_EPOCH   = 38047
BSTAR          = .23930194E-3
MEAN_MOTION_DOT = .6059E-4
MEAN_MOTION_DDOT = 0

CCSDS_OMM_VERS = 2.0
CREATION_DATE  = 
ORIGINATOR     = 

OBJECT_NAME    = SL-14 R/B
OBJECT_ID      = 1982-092B
CENTER_NAME    = EARTH
REF_FRAME      = TEME
TIME_SYSTEM    = UTC
MEAN_ELEMENT_THEORY = SGP/SGP4

EPOCH          = 2026-03-27T20:05:17.987136
MEAN_MOTION    = 14.86682242
ECCENTRICITY   = .0018993
INCLINATION    = 82.5660
RA_OF_ASC_NODE = 124.4231
ARG_OF_PERICENTER = 238.6575
MEAN_ANOMALY   = 294.1377

EPHEMERIS_TYPE = 0
CLASSIFICATION_TYPE = U
NORAD_CAT_ID   = 13553
ELEMENT_SET_NO = 999
REV_AT_EPOCH   = 33162
BSTAR          = .4330142E-4
MEAN_MOTION_DOT = .41E-5
MEAN_MOTION_DDOT = 0

CCSDS_OMM_VERS = 2.0
CREATION_DATE  = 
ORIGINATOR     = 

OBJECT_NAME    = SL-3 R/B
OBJECT_ID      = 1983-010B
CENTER_NAME    = EARTH
REF_FRAME      = TEME
TIME_SYSTEM    = UTC
MEAN_ELEMENT_THEORY = SGP/SGP4

EPOCH          = 2026-03-27T19:27:54.121248
MEAN_MOTION    = 15.46955675
ECCENTRICITY   = .00160978
INCLINATION    = 81.1058
RA_OF_ASC_NODE = 340.0223
ARG_OF_PERICENTER = 349.4554
MEAN_ANOMALY   = 10.6350

EPHEMERIS_TYPE = 0
CLASSIFICATION_TYPE = U
NORAD_CAT_ID   = 13819
ELEMENT_SET_NO = 999
REV_AT_EPOCH   = 36074
BSTAR          = .27985759E-3
MEAN_MOTION_DOT = .14212E-3
MEAN_MOTION_DDOT = 0

CCSDS_OMM_VERS = 2.0
CREATION_DATE  = 
ORIGINATOR     = 

OBJECT_NAME    = SL-3 R/B
OBJECT_ID      = 1983-075B
CENTER_NAME    = EARTH
REF_FRAME      = TEME
TIME_SYSTEM    = UTC
MEAN_ELEMENT_THEORY = SGP/SGP4

EPOCH          = 2026-03-27T21:31:33.139776
MEAN_MOTION    = 15.38835099
ECCENTRICITY   = .00221489
INCLINATION    = 97.6142
RA_OF_ASC_NODE = 92.1696
ARG_OF_PERICENTER = 159.6287
MEAN_ANOMALY   = 200.5846

EPHEMERIS_TYPE = 0
CLASSIFICATION_TYPE = U
NORAD_CAT_ID   = 14208
ELEMENT_SET_NO = 999
REV_AT_EPOCH   = 33295
BSTAR          = .29851463E-3
MEAN_MOTION_DOT = .11476E-3
MEAN_MOTION_DDOT = 0

CCSDS_OMM_VERS = 2.0
CREATION_DATE  = 
ORIGINATOR     = 

OBJECT_NAME    = COSMOS 1536
OBJECT_ID      = 1984-013A
CENTER_NAME    = EARTH
REF_FRAME      = TEME
TIME_SYSTEM    = UTC
MEAN_ELEMENT_THEORY = SGP/SGP4

EPOCH          = 2026-03-27T18:38:32.893440
MEAN_MOTION    = 15.24061050
ECCENTRICITY   = .00132059
INCLINATION    = 82.5416
RA_OF_ASC_NODE = 89.8629
ARG_OF_PERICENTER = 211.9393
MEAN_ANOMALY   = 148.1045

EPHEMERIS_TYPE = 0
CLASSIFICATION_TYPE = U
NORAD_CAT_ID   = 14699
ELEMENT_SET_NO = 999
REV_AT_EPOCH   = 27537
BSTAR          = .24347872E-3
MEAN_MOTION_DOT = .5952E-4
MEAN_MOTION_DDOT = 0

CCSDS_OMM_VERS = 2.0
CREATION_DATE  = 
ORIGINATOR     = 

OBJECT_NAME    = SL-14 R/B
OBJECT_ID      = 1984-027B
CENTER_NAME    = EARTH
REF_FRAME      = TEME
TIME_SYSTEM    = UTC
MEAN_ELEMENT_THEORY = SGP/SGP4

EPOCH          = 2026-03-27T20:58:45.365952
MEAN_MOTION    = 14.85994935
ECCENTRICITY   = .00164798
INCLINATION    = 82.5416
RA_OF_ASC_NODE = 227.9561
ARG_OF_PERICENTER = 273.5489
MEAN_ANOMALY   = 86.3842

EPHEMERIS_TYPE = 0
CLASSIFICATION_TYPE = U
NORAD_CAT_ID   = 14820
ELEMENT_SET_NO = 999
REV_AT_EPOCH   = 25033
BSTAR          = .59593445E-4
MEAN_MOTION_DOT = .546E-5
MEAN_MOTION_DDOT = 0

CCSDS_OMM_VERS = 2.0
CREATION_DATE  = 
ORIGINATOR     = 

OBJECT_NAME    = SL-8 R/B
OBJECT_ID      = 1985-006B
CENTER_NAME    = EARTH
REF_FRAME      = TEME
TIME_SYSTEM    = UTC
MEAN_ELEMENT_THEORY = SGP/SGP4

EPOCH          = 2026-03-27T20:03:31.994208
MEAN_MOTION    = 14.37795997
ECCENTRICITY   = .00177159
INCLINATION    = 74.0450
RA_OF_ASC_NODE = 227.7553
ARG_OF_PERICENTER = 140.3973
MEAN_ANOMALY   = 11.9798

EPHEMERIS_TYPE = 0
CLASSIFICATION_TYPE = U
NORAD_CAT_ID   = 15483
ELEMENT_SET_NO = 999
REV_AT_EPOCH   = 15663
BSTAR          = .11000149E-3
MEAN_MOTION_DOT = .306E-5
MEAN_MOTION_DDOT = 0

CCSDS_OMM_VERS = 2.0
CREATION_DATE  = 
ORIGINATOR     = 

OBJECT_NAME    = SL-12 R/B(2)
OBJECT_ID      = 1985-042D
CENTER_NAME    = EARTH
REF_FRAME      = TEME
TIME_SYSTEM    = UTC
MEAN_ELEMENT_THEORY = SGP/SGP4

EPOCH          = 2026-03-27T15:41:44.337696
MEAN_MOTION    = 14.21987316
ECCENTRICITY   = .0032861
INCLINATION    = 71.1083
RA_OF_ASC_NODE = 49.7722
ARG_OF_PERICENTER = 98.3616
MEAN_ANOMALY   = 73.6899

EPHEMERIS_TYPE = 0
CLASSIFICATION_TYPE = U
NORAD_CAT_ID   = 15772
ELEMENT_SET_NO = 999
REV_AT_EPOCH   = 11694
BSTAR          = .4498E-4
MEAN_MOTION_DOT = .52E-6
MEAN_MOTION_DDOT = 0

CCSDS_OMM_VERS = 2.0
CREATION_DATE  = 
ORIGINATOR     = 

OBJECT_NAME    = SL-14 R/B
OBJECT_ID      = 1985-069B
CENTER_NAME    = EARTH
REF_FRAME      = TEME
TIME_SYSTEM    = UTC
MEAN_ELEMENT_THEORY = SGP/SGP4

EPOCH          = 2026-03-27T20:28:52.516704
MEAN_MOTION    = 14.86452384
ECCENTRICITY   = .00199768
INCLINATION    = 82.5305
RA_OF_ASC_NODE = 7.8580
ARG_OF_PERICENTER = 129.1305
MEAN_ANOMALY   = 231.1692

EPHEMERIS_TYPE = 0
CLASSIFICATION_TYPE = U
NORAD_CAT_ID   = 15945
ELEMENT_SET_NO = 999
REV_AT_EPOCH   = 17553
BSTAR          = .54042646E-4
MEAN_MOTION_DOT = .504E-5
MEAN_MOTION_DDOT = 0

CCSDS_OMM_VERS = 2.0
CREATION_DATE  = 
ORIGINATOR     = 

OBJECT_NAME    = SL-16 R/B
OBJECT_ID      = 1985-097B
CENTER_NAME    = EARTH
REF_FRAME      = TEME
TIME_SYSTEM    = UTC
MEAN_ELEMENT_THEORY = SGP/SGP4

EPOCH          = 2026-03-27T19:16:05.947104
MEAN_MOTION    = 14.16603547
ECCENTRICITY   = .00094769
INCLINATION    = 71.0008
RA_OF_ASC_NODE = 102.4191
ARG_OF_PERICENTER = 238.6472
MEAN_ANOMALY   = 293.8767

EPHEMERIS_TYPE = 0
CLASSIFICATION_TYPE = U
NORAD_CAT_ID   = 16182
ELEMENT_SET_NO = 999
REV_AT_EPOCH   = 8979
BSTAR          = .9679933E-5
MEAN_MOTION_DOT = -.29E-6
MEAN_MOTION_DDOT = 0

CCSDS_OMM_VERS = 2.0
CREATION_DATE  = 
ORIGINATOR     = 

OBJECT_NAME    = SL-14 R/B
OBJECT_ID      = 1986-006B
CENTER_NAME    = EARTH
REF_FRAME      = TEME
TIME_SYSTEM    = UTC
MEAN_ELEMENT_THEORY = SGP/SGP4

EPOCH          = 2026-03-27T19:49:07.836960
MEAN_MOTION    = 14.86842610
ECCENTRICITY   = .00757273
INCLINATION    = 82.5250
RA_OF_ASC_NODE = 242.6639
ARG_OF_PERICENTER = 211.6515
MEAN_ANOMALY   = 148.0138

EPHEMERIS_TYPE = 0
CLASSIFICATION_TYPE = U
NORAD_CAT_ID   = 16496
ELEMENT_SET_NO = 999
REV_AT_EPOCH   = 15190
BSTAR          = .95415956E-4
MEAN_MOTION_DOT = .923E-5
MEAN_MOTION_DDOT = 0

CCSDS_OMM_VERS = 2.0
CREATION_DATE  = 
ORIGINATOR     = 

OBJECT_NAME    = COSMOS 1743
OBJECT_ID      = 1986-034A
CENTER_NAME    = EARTH
REF_FRAME      = TEME
TIME_SYSTEM    = UTC
MEAN_ELEMENT_THEORY = SGP/SGP4

EPOCH          = 2026-03-27T20:49:45.169824
MEAN_MOTION    = 15.60021234
ECCENTRICITY   = .00040924
INCLINATION    = 82.5300
RA_OF_ASC_NODE = 54.7300
ARG_OF_PERICENTER = 174.1082
MEAN_ANOMALY   = 186.0223

EPHEMERIS_TYPE = 0
CLASSIFICATION_TYPE = U
NORAD_CAT_ID   = 16719
ELEMENT_SET_NO = 999
REV_AT_EPOCH   = 18308
BSTAR          = .54255424E-3
MEAN_MOTION_DOT = .44051E-3
MEAN_MOTION_DDOT = 0

